     2.10           N: GPS NAV DATA                         RINEX VERSION / TYPE
teqc  2009Mar23                         20140502 00:19:16UTCPGM / RUN BY / DATE
    16                                                      LEAP SECONDS
Linux 2.4.20-8|Pentium IV|gcc -static|Linux|486/DX+         COMMENT
teqc  2009Mar23                         20140501 01:05:03UTCCOMMENT
                                                            END OF HEADER
24 14  5  1 14  0  0.0-2.766866236925D-05-6.821210263297D-13 0.000000000000D+00
    7.900000000000D+01 1.690625000000D+01 5.044495837785D-09 1.405858495649D+00
    1.018866896629D-06 2.062617219053D-03 7.655471563339D-07 5.153734506607D+03
    3.960000000000D+05 1.490116119385D-08 1.930787376359D+00 3.911554813385D-08
    9.566984812804D-01 3.616875000000D+02 3.361751352952D-01-8.657860634647D-09
   -6.821712723145D-11 1.000000000000D+00 1.790000000000D+03 0.000000000000D+00
    2.800000000000D+00 0.000000000000D+00 2.793967723846D-09 7.900000000000D+01
    3.914700000000D+05 4.000000000000D+00
27 14  5  1 14  0  0.0-1.814775168896D-05 1.364242052659D-12 0.000000000000D+00
    7.100000000000D+01-6.562500000000D-01 4.175173912752D-09-2.843511562756D+00
    5.029141902924D-08 1.177463214844D-03 1.033395528793D-05 5.153676366806D+03
    3.960000000000D+05 6.891787052155D-08-2.250644579192D+00-7.450580596924D-09
    9.631315333343D-01 1.835000000000D+02 9.917615247912D-02-7.789253025082D-09
    5.678807973718D-10 1.000000000000D+00 1.790000000000D+03 0.000000000000D+00
    2.000000000000D+00 0.000000000000D+00 1.862645149231D-09 7.100000000000D+01
    3.914700000000D+05 4.000000000000D+00
32 14  5  1 14  0  0.0-4.381421022117D-04 7.844391802792D-12 0.000000000000D+00
    5.400000000000D+01-5.875000000000D+00 4.829844039534D-09 1.157726352224D+00
   -3.091990947723D-07 1.140091335401D-02 1.025944948196D-05 5.153752988815D+03
    3.960000000000D+05 1.098960638046D-07-6.818852663441D-02 2.067536115646D-07
    9.482642011817D-01 1.787812500000D+02-1.634189271914D-01-8.021762710044D-09
   -5.043067206849D-10 1.000000000000D+00 1.790000000000D+03 0.000000000000D+00
    2.000000000000D+00 0.000000000000D+00-3.259629011154D-09 5.400000000000D+01
    3.923700000000D+05 4.000000000000D+00
28 14  5  1 14  0  0.0 3.514704294503D-04 2.842170943040D-12 0.000000000000D+00
    7.700000000000D+01-1.090625000000D+02 3.587649440000D-09-2.108473479412D+00
   -5.640089511871D-06 1.913135393988D-02 8.929520845413D-06 5.153672315598D+03
    3.960000000000D+05 3.203749656677D-07 3.051990172030D+00 4.097819328308D-08
    9.868054918840D-01 2.176250000000D+02-1.715837774251D+00-7.342805857337D-09
   -2.564392531528D-10 1.000000000000D+00 1.790000000000D+03 0.000000000000D+00
    2.000000000000D+00 0.000000000000D+00-1.071020960808D-08 7.700000000000D+01
    3.923400000000D+05 4.000000000000D+00
 1 14  5  1 14  0  0.0 1.068739220500D-05 1.364242052659D-12 0.000000000000D+00
    1.040000000000D+02 3.562500000000D+00 4.939848621666D-09 1.211148852320D+00
    3.911554813385D-08 2.965194405988D-03 4.861503839493D-06 5.153673036575D+03
    3.960000000000D+05 4.470348358154D-08-1.195534997460D+00 3.166496753693D-08
    9.604316170776D-01 2.852812500000D+02 3.069218792939D-01-8.292845430299D-09
    8.000333245992D-11 1.000000000000D+00 1.790000000000D+03 0.000000000000D+00
    2.000000000000D+00 0.000000000000D+00 5.587935447693D-09 1.040000000000D+02
    3.932100000000D+05 4.000000000000D+00
12 14  5  1 14  0  0.0 2.021258696914D-04 2.387423592154D-12 0.000000000000D+00
    9.400000000000D+01-1.230937500000D+02 3.805515657859D-09 1.470150512184D-01
   -6.426125764847D-06 5.117671331391D-03 8.193776011467D-06 5.153637863159D+03
    3.960000000000D+05 9.872019290924D-08 3.027650955872D+00 8.568167686462D-08
    9.876676904494D-01 2.335000000000D+02 4.098647766502D-01-7.831397637718D-09
   -3.250135381184D-10 1.000000000000D+00 1.790000000000D+03 0.000000000000D+00
    2.000000000000D+00 0.000000000000D+00-1.210719347000D-08 9.400000000000D+01
    3.940200000000D+05 4.000000000000D+00
31 14  5  1 14  0  0.0 3.342563286424D-04 0.000000000000D+00 0.000000000000D+00
    8.300000000000D+01 9.593750000000D+00 4.498758819934D-09 4.433577594246D-01
    2.849847078323D-07 8.012672187760D-03 1.538544893265D-06 5.153536582947D+03
    3.960000000000D+05 3.725290298462D-08 1.971071913891D+00-7.823109626770D-08
    9.782749166656D-01 3.587187500000D+02-6.393422027347D-01-8.407493062976D-09
   -1.075044779930D-10 1.000000000000D+00 1.790000000000D+03 0.000000000000D+00
    2.000000000000D+00 0.000000000000D+00-1.303851604462D-08 8.300000000000D+01
    3.947100000000D+05 4.000000000000D+00
 1 14  5  1 15 59 44.0 1.069717109203D-05 1.364242052659D-12 0.000000000000D+00
    2.000000000000D+00 6.406250000000D+00 4.860559604675D-09 2.259080142270D+00
    3.501772880554D-07 2.965388237499D-03 4.779547452927D-06 5.153672525406D+03
    4.031840000000D+05-8.381903171539D-08-1.195594908344D+00 2.793967723846D-08
    9.604326879337D-01 2.845625000000D+02 3.068411554743D-01-8.228914195878D-09
    1.703642392115D-10 1.000000000000D+00 1.790000000000D+03 0.000000000000D+00
    2.000000000000D+00 0.000000000000D+00 5.587935447693D-09 2.000000000000D+00
    3.995700000000D+05 4.000000000000D+00
11 14  5  1 16  0  0.0-4.853233695030D-04-3.183231456205D-12 0.000000000000D+00
    4.700000000000D+01 2.471875000000D+01 6.371336820324D-09 1.800502771242D+00
    1.072883605957D-06 1.488625782076D-02 5.340203642845D-06 5.153695379257D+03
    4.032000000000D+05-7.636845111847D-08-1.517813726165D+00-4.265457391739D-07
    8.900021457160D-01 2.382500000000D+02 1.279712854434D+00-8.939300929194D-09
    4.432327481373D-10 1.000000000000D+00 1.790000000000D+03 0.000000000000D+00
    2.000000000000D+00 0.000000000000D+00-1.210719347000D-08 4.700000000000D+01
    3.986700000000D+05 4.000000000000D+00
12 14  5  1 16  0  0.0 2.021430991590D-04 2.387423592154D-12 0.000000000000D+00
    9.500000000000D+01-1.158437500000D+02 3.765871149364D-09 1.197023300094D+00
   -5.934387445450D-06 5.118694505654D-03 8.625909686089D-06 5.153640522003D+03
    4.032000000000D+05-2.235174179077D-08 3.027595291839D+00 1.024454832077D-07
    9.876652064145D-01 2.264375000000D+02 4.100531229642D-01-7.771395138373D-09
   -4.039453973758D-10 1.000000000000D+00 1.790000000000D+03 0.000000000000D+00
    2.000000000000D+00 0.000000000000D+00-1.210719347000D-08 9.500000000000D+01
    3.986700000000D+05 4.000000000000D+00
14 14  5  1 16  0  0.0 1.767543144524D-04-3.410605131648D-12 0.000000000000D+00
    7.900000000000D+01 1.274062500000D+02 4.264106188567D-09-1.975347897626D+00
    6.629154086113D-06 7.416285923682D-03 8.450821042061D-06 5.153657611847D+03
    4.032000000000D+05 1.117587089539D-07 9.682264147223D-01 2.048909664154D-08
    9.705189829026D-01 2.201875000000D+02-2.001439708660D+00-7.833897741857D-09
    2.975123925853D-10 1.000000000000D+00 1.790000000000D+03 0.000000000000D+00
    2.000000000000D+00 0.000000000000D+00-9.313225746155D-09 7.900000000000D+01
    3.986700000000D+05 4.000000000000D+00
17 14  5  1 16  0  0.0-8.962163701653D-05-3.183231456205D-12 0.000000000000D+00
    8.300000000000D+01 8.375000000000D+00 4.126957618636D-09-1.910456759084D+00
    3.799796104431D-07 9.276751778089D-03 1.023709774017D-05 5.153582605362D+03
    4.032000000000D+05 1.806765794754D-07-2.205321630372D+00-1.657754182816D-07
    9.683672001065D-01 1.879375000000D+02-2.100892125904D+00-7.592459113540D-09
    4.682337895311D-10 1.000000000000D+00 1.790000000000D+03 0.000000000000D+00
    2.800000000000D+00 0.000000000000D+00-1.024454832077D-08 8.300000000000D+01
    3.986700000000D+05 4.000000000000D+00
20 14  5  1 16  0  0.0 1.851134002209D-04 3.751665644813D-12 0.000000000000D+00
    7.500000000000D+01-2.293750000000D+01 5.356651697473D-09 2.305992838315D-01
   -1.460313796997D-06 5.798655794933D-03 9.069219231606D-06 5.153803707123D+03
    4.032000000000D+05-9.126961231232D-08-2.148186797174D-01 7.450580596924D-09
    9.272357354102D-01 1.884062500000D+02 1.334778417804D+00-8.452852095219D-09
   -4.443042213399D-10 1.000000000000D+00 1.790000000000D+03 0.000000000000D+00
    2.000000000000D+00 0.000000000000D+00-8.381903171539D-09 7.500000000000D+01
    3.986700000000D+05 4.000000000000D+00
22 14  5  1 16  0  0.0 2.309116534889D-04 2.614797267597D-12 0.000000000000D+00
    6.300000000000D+01-1.093750000000D+01 5.404510833855D-09-8.505782267973D-01
   -4.172325134277D-07 7.135125692002D-03 9.510666131973D-06 5.153725423813D+03
    4.032000000000D+05 3.725290298462D-09-1.598005280591D-01 1.210719347000D-07
    9.240611139402D-01 1.773750000000D+02-2.063076664933D+00-8.411778955786D-09
   -4.325180161115D-10 1.000000000000D+00 1.790000000000D+03 0.000000000000D+00
    2.000000000000D+00 0.000000000000D+00-1.722946763039D-08 6.300000000000D+01
    3.986700000000D+05 4.000000000000D+00
25 14  5  1 16  0  0.0 2.303160727024D-05 7.958078640513D-13 0.000000000000D+00
    8.100000000000D+01-1.214062500000D+02 4.103028050445D-09 4.253321027093D-01
   -6.210058927536D-06 3.551361849532D-03 7.549300789833D-06 5.153623018265D+03
    4.032000000000D+05 3.911554813385D-08 2.985487219606D+00 8.568167686462D-08
    9.763638233923D-01 2.381875000000D+02 6.539553280015D-01-7.984975463422D-09
   -3.778728827795D-10 1.000000000000D+00 1.790000000000D+03 0.000000000000D+00
    2.000000000000D+00 0.000000000000D+00 5.122274160385D-09 8.100000000000D+01
    3.986700000000D+05 4.000000000000D+00
